ISS OBJECT YE           
1 67688U 98067YE  26060.41383434  .00050179  00000+0  83355-3 0  9997
2 67688  51.6318 112.8976 0007609 123.4438 236.7280 15.51553933  3429
CZ-2F R/B               
1 67690U 26024B   26060.43098664  .00020559  00000+0  37867-3 0  9990
2 67690  49.9878  56.0089 0175341 240.6764 117.6578 15.33958703  3421
CZ-2F DEB               
1 67691U 26024C   26060.40598644  .00993610  10757-4  77527-3 0  9990
2 67691  49.9040  49.4956 0176269 253.5870 104.5672 15.89124230  3491
CZ-2F DEB               
1 67692U 26024D   26060.47783366  .00219614  00000+0  40418-2 0  9993
2 67692  50.3172  58.9545 0243804 247.7753 109.7181 15.21756130  3373
STARLINK-36748          
1 67693U 26025A   26060.47390030  .00022123  00000+0  14874-3 0  9992
2 67693  97.2848 171.6005 0001218  70.5968 289.5429 15.75201200  4644
STARLINK-36753          
1 67694U 26025B   26060.46615688  .00175627  00000+0  11515-2 0  9997
2 67694  97.2847 171.6104 0001077  74.2970 285.8414 15.75246148  4655
STARLINK-36750          
1 67695U 26025C   26060.45050958  .00163343  00000+0  83459-3 0  9999
2 67695  97.2841 171.6332 0001017  82.2444 277.8939 15.80895906  4642
STARLINK-36401          
1 67696U 26025D   26060.50003471 -.00006383  00000+0 -41997-4 0  9998
2 67696  97.2845 171.6799 0001071  82.8559 187.2421 15.75169069  4533
STARLINK-36704          
1 67697U 26025E   26060.46403898  .00225553  00000+0  14684-2 0  9992
2 67697  97.2846 171.6126 0001179  66.2648 293.8741 15.75270049  4645
STARLINK-36697          
1 67698U 26025F   26060.44403552  .00249215  00000+0  12564-2 0  9994
2 67698  97.2845 171.6407 0001074  75.0874 285.0514 15.80964727  4640
STARLINK-36716          
1 67699U 26025G   26060.44231765  .00248459  00000+0  12544-2 0  9997
2 67699  97.2850 171.6430 0001380  55.9246 304.2153 15.80935094  4652
