CCSDS_OMM_VERS = 2.0
CREATION_DATE  = 
ORIGINATOR     = 

OBJECT_NAME    = ISS OBJECT YE
OBJECT_ID      = 1998-067YE
CENTER_NAME    = EARTH
REF_FRAME      = TEME
TIME_SYSTEM    = UTC
MEAN_ELEMENT_THEORY = SGP/SGP4

EPOCH          = 2026-03-01T09:55:55.286976
MEAN_MOTION    = 15.51553933
ECCENTRICITY   = .0007609
INCLINATION    = 51.6318
RA_OF_ASC_NODE = 112.8976
ARG_OF_PERICENTER = 123.4438
MEAN_ANOMALY   = 236.7280

EPHEMERIS_TYPE = 0
CLASSIFICATION_TYPE = U
NORAD_CAT_ID   = 67688
ELEMENT_SET_NO = 999
REV_AT_EPOCH   = 342
BSTAR          = .83355E-3
MEAN_MOTION_DOT = .50179E-3
MEAN_MOTION_DDOT = 0

CCSDS_OMM_VERS = 2.0
CREATION_DATE  = 
ORIGINATOR     = 

OBJECT_NAME    = CZ-2F R/B
OBJECT_ID      = 2026-024B
CENTER_NAME    = EARTH
REF_FRAME      = TEME
TIME_SYSTEM    = UTC
MEAN_ELEMENT_THEORY = SGP/SGP4

EPOCH          = 2026-03-01T10:20:37.245696
MEAN_MOTION    = 15.33958703
ECCENTRICITY   = .0175341
INCLINATION    = 49.9878
RA_OF_ASC_NODE = 56.0089
ARG_OF_PERICENTER = 240.6764
MEAN_ANOMALY   = 117.6578

EPHEMERIS_TYPE = 0
CLASSIFICATION_TYPE = U
NORAD_CAT_ID   = 67690
ELEMENT_SET_NO = 999
REV_AT_EPOCH   = 342
BSTAR          = .37867E-3
MEAN_MOTION_DOT = .20559E-3
MEAN_MOTION_DDOT = 0

CCSDS_OMM_VERS = 2.0
CREATION_DATE  = 
ORIGINATOR     = 

OBJECT_NAME    = CZ-2F DEB
OBJECT_ID      = 2026-024C
CENTER_NAME    = EARTH
REF_FRAME      = TEME
TIME_SYSTEM    = UTC
MEAN_ELEMENT_THEORY = SGP/SGP4

EPOCH          = 2026-03-01T09:44:37.228416
MEAN_MOTION    = 15.89124230
ECCENTRICITY   = .0176269
INCLINATION    = 49.9040
RA_OF_ASC_NODE = 49.4956
ARG_OF_PERICENTER = 253.5870
MEAN_ANOMALY   = 104.5672

EPHEMERIS_TYPE = 0
CLASSIFICATION_TYPE = U
NORAD_CAT_ID   = 67691
ELEMENT_SET_NO = 999
REV_AT_EPOCH   = 349
BSTAR          = .77527E-3
MEAN_MOTION_DOT = .99361E-2
MEAN_MOTION_DDOT = .10757E-4

CCSDS_OMM_VERS = 2.0
CREATION_DATE  = 
ORIGINATOR     = 

OBJECT_NAME    = CZ-2F DEB
OBJECT_ID      = 2026-024D
CENTER_NAME    = EARTH
REF_FRAME      = TEME
TIME_SYSTEM    = UTC
MEAN_ELEMENT_THEORY = SGP/SGP4

EPOCH          = 2026-03-01T11:28:04.828224
MEAN_MOTION    = 15.21756130
ECCENTRICITY   = .0243804
INCLINATION    = 50.3172
RA_OF_ASC_NODE = 58.9545
ARG_OF_PERICENTER = 247.7753
MEAN_ANOMALY   = 109.7181

EPHEMERIS_TYPE = 0
CLASSIFICATION_TYPE = U
NORAD_CAT_ID   = 67692
ELEMENT_SET_NO = 999
REV_AT_EPOCH   = 337
BSTAR          = .40418E-2
MEAN_MOTION_DOT = .219614E-2
MEAN_MOTION_DDOT = 0

CCSDS_OMM_VERS = 2.0
CREATION_DATE  = 
ORIGINATOR     = 

OBJECT_NAME    = STARLINK-36748
OBJECT_ID      = 2026-025A
CENTER_NAME    = EARTH
REF_FRAME      = TEME
TIME_SYSTEM    = UTC
MEAN_ELEMENT_THEORY = SGP/SGP4

EPOCH          = 2026-03-01T11:22:24.985920
MEAN_MOTION    = 15.75201200
ECCENTRICITY   = .0001218
INCLINATION    = 97.2848
RA_OF_ASC_NODE = 171.6005
ARG_OF_PERICENTER = 70.5968
MEAN_ANOMALY   = 289.5429

EPHEMERIS_TYPE = 0
CLASSIFICATION_TYPE = U
NORAD_CAT_ID   = 67693
ELEMENT_SET_NO = 999
REV_AT_EPOCH   = 464
BSTAR          = .14874E-3
MEAN_MOTION_DOT = .22123E-3
MEAN_MOTION_DDOT = 0

CCSDS_OMM_VERS = 2.0
CREATION_DATE  = 
ORIGINATOR     = 

OBJECT_NAME    = STARLINK-36753
OBJECT_ID      = 2026-025B
CENTER_NAME    = EARTH
REF_FRAME      = TEME
TIME_SYSTEM    = UTC
MEAN_ELEMENT_THEORY = SGP/SGP4

EPOCH          = 2026-03-01T11:11:15.954432
MEAN_MOTION    = 15.75246148
ECCENTRICITY   = .0001077
INCLINATION    = 97.2847
RA_OF_ASC_NODE = 171.6104
ARG_OF_PERICENTER = 74.2970
MEAN_ANOMALY   = 285.8414

EPHEMERIS_TYPE = 0
CLASSIFICATION_TYPE = U
NORAD_CAT_ID   = 67694
ELEMENT_SET_NO = 999
REV_AT_EPOCH   = 465
BSTAR          = .11515E-2
MEAN_MOTION_DOT = .175627E-2
MEAN_MOTION_DDOT = 0

CCSDS_OMM_VERS = 2.0
CREATION_DATE  = 
ORIGINATOR     = 

OBJECT_NAME    = STARLINK-36750
OBJECT_ID      = 2026-025C
CENTER_NAME    = EARTH
REF_FRAME      = TEME
TIME_SYSTEM    = UTC
MEAN_ELEMENT_THEORY = SGP/SGP4

EPOCH          = 2026-03-01T10:48:44.027712
MEAN_MOTION    = 15.80895906
ECCENTRICITY   = .0001017
INCLINATION    = 97.2841
RA_OF_ASC_NODE = 171.6332
ARG_OF_PERICENTER = 82.2444
MEAN_ANOMALY   = 277.8939

EPHEMERIS_TYPE = 0
CLASSIFICATION_TYPE = U
NORAD_CAT_ID   = 67695
ELEMENT_SET_NO = 999
REV_AT_EPOCH   = 464
BSTAR          = .83459E-3
MEAN_MOTION_DOT = .163343E-2
MEAN_MOTION_DDOT = 0

CCSDS_OMM_VERS = 2.0
CREATION_DATE  = 
ORIGINATOR     = 

OBJECT_NAME    = STARLINK-36401
OBJECT_ID      = 2026-025D
CENTER_NAME    = EARTH
REF_FRAME      = TEME
TIME_SYSTEM    = UTC
MEAN_ELEMENT_THEORY = SGP/SGP4

EPOCH          = 2026-03-01T12:00:02.998944
MEAN_MOTION    = 15.75169069
ECCENTRICITY   = .0001071
INCLINATION    = 97.2845
RA_OF_ASC_NODE = 171.6799
ARG_OF_PERICENTER = 82.8559
MEAN_ANOMALY   = 187.2421

EPHEMERIS_TYPE = 0
CLASSIFICATION_TYPE = U
NORAD_CAT_ID   = 67696
ELEMENT_SET_NO = 999
REV_AT_EPOCH   = 453
BSTAR          = -.41997E-4
MEAN_MOTION_DOT = -.6383E-4
MEAN_MOTION_DDOT = 0

CCSDS_OMM_VERS = 2.0
CREATION_DATE  = 
ORIGINATOR     = 

OBJECT_NAME    = STARLINK-36704
OBJECT_ID      = 2026-025E
CENTER_NAME    = EARTH
REF_FRAME      = TEME
TIME_SYSTEM    = UTC
MEAN_ELEMENT_THEORY = SGP/SGP4

EPOCH          = 2026-03-01T11:08:12.967872
MEAN_MOTION    = 15.75270049
ECCENTRICITY   = .0001179
INCLINATION    = 97.2846
RA_OF_ASC_NODE = 171.6126
ARG_OF_PERICENTER = 66.2648
MEAN_ANOMALY   = 293.8741

EPHEMERIS_TYPE = 0
CLASSIFICATION_TYPE = U
NORAD_CAT_ID   = 67697
ELEMENT_SET_NO = 999
REV_AT_EPOCH   = 464
BSTAR          = .14684E-2
MEAN_MOTION_DOT = .225553E-2
MEAN_MOTION_DDOT = 0

CCSDS_OMM_VERS = 2.0
CREATION_DATE  = 
ORIGINATOR     = 

OBJECT_NAME    = STARLINK-36697
OBJECT_ID      = 2026-025F
CENTER_NAME    = EARTH
REF_FRAME      = TEME
TIME_SYSTEM    = UTC
MEAN_ELEMENT_THEORY = SGP/SGP4

EPOCH          = 2026-03-01T10:39:24.668928
MEAN_MOTION    = 15.80964727
ECCENTRICITY   = .0001074
INCLINATION    = 97.2845
RA_OF_ASC_NODE = 171.6407
ARG_OF_PERICENTER = 75.0874
MEAN_ANOMALY   = 285.0514

EPHEMERIS_TYPE = 0
CLASSIFICATION_TYPE = U
NORAD_CAT_ID   = 67698
ELEMENT_SET_NO = 999
REV_AT_EPOCH   = 464
BSTAR          = .12564E-2
MEAN_MOTION_DOT = .249215E-2
MEAN_MOTION_DDOT = 0

CCSDS_OMM_VERS = 2.0
CREATION_DATE  = 
ORIGINATOR     = 

OBJECT_NAME    = STARLINK-36716
OBJECT_ID      = 2026-025G
CENTER_NAME    = EARTH
REF_FRAME      = TEME
TIME_SYSTEM    = UTC
MEAN_ELEMENT_THEORY = SGP/SGP4

EPOCH          = 2026-03-01T10:36:56.244960
MEAN_MOTION    = 15.80935094
ECCENTRICITY   = .000138
INCLINATION    = 97.2850
RA_OF_ASC_NODE = 171.6430
ARG_OF_PERICENTER = 55.9246
MEAN_ANOMALY   = 304.2153

EPHEMERIS_TYPE = 0
CLASSIFICATION_TYPE = U
NORAD_CAT_ID   = 67699
ELEMENT_SET_NO = 999
REV_AT_EPOCH   = 465
BSTAR          = .12544E-2
MEAN_MOTION_DOT = .248459E-2
MEAN_MOTION_DDOT = 0

